NORAD_CAT_ID,OBJECT_NAME,OBJECT_TYPE,EPOCH,MEAN_MOTION,ECCENTRICITY,INCLINATION,RA_OF_ASC_NODE,ARG_OF_PERICENTER,MEAN_ANOMALY,BSTAR,MEAN_MOTION_DOT,MEAN_MOTION_DDOT,TLE_LINE0,TLE_LINE1,TLE_LINE2,SEMIMAJOR_AXIS,PERIOD,APOGEE,PERIGEE,DECAYED
52668.0,STARLINK-4067,PAYLOAD,2023-11-23 06:12:12,15.08843222,0.0001543,53.2169,313.4968,91.5199,268.597,5.2103e-05,5.41e-06,0.0,0 STARLINK-4067,1 52668U 22053N   23327.25847650  .00000541  00000-0  52103-4 0  9998,2 52668  53.2169 313.4968 0001543  91.5199 268.5970 15.08843222 84628,6917.871,95.437,540.803,538.668,0.0
52668.0,STARLINK-4067,PAYLOAD,2023-11-24 04:27:37,15.08836929,0.0001496,53.2178,309.3325,93.7951,266.3212,1.9135e-05,1.7e-07,0.0,0 STARLINK-4067,1 52668U 22053N   23328.18584522  .00000017  00000-0  19135-4 0  9993,2 52668  53.2178 309.3325 0001496  93.7951 266.3212 15.08836929 84762,6917.89,95.438,540.79,538.72,0.0
52668.0,STARLINK-4067,PAYLOAD,2023-11-24 21:56:51,15.08834815,0.0001759,53.2176,306.0626,99.6965,260.4226,6.2127e-05,7.01e-06,0.0,0 STARLINK-4067,1 52668U 22053N   23328.91448838  .00000701  00000-0  62127-4 0  9992,2 52668  53.2176 306.0626 0001759  99.6965 260.4226 15.08834815 84874,6917.896,95.438,540.978,538.544,0.0
52668.0,STARLINK-4067,PAYLOAD,2023-11-25 07:29:10,15.08845514,0.0001656,53.2172,304.2783,103.9379,256.1797,0.00022056,3.224e-05,0.0,0 STARLINK-4067,1 52668U 22053N   23329.31192340  .00003224  00000-0  22056-3 0  9990,2 52668  53.2172 304.2783 0001656 103.9379 256.1797 15.08845514 84938,6917.864,95.437,540.874,538.583,0.0
52668.0,STARLINK-4067,PAYLOAD,2023-11-26 07:19:56,15.08866344,0.0001562,53.217,299.8177,91.936,268.1811,0.00050004,7.685e-05,0.0,0 STARLINK-4067,1 52668U 22053N   23330.30551535  .00007685  00000-0  50004-3 0  9995,2 52668  53.2170 299.8177 0001562  91.9360 268.1811 15.08866344 85085,6917.8,95.436,540.745,538.584,0.0
52668.0,STARLINK-4067,PAYLOAD,2023-11-26 21:38:26,15.08823922,0.0001397,53.2175,297.1417,106.936,253.1785,-0.00029417,-4.964e-05,0.0,0 STARLINK-4067,1 52668U 22053N   23330.90169088 -.00004964  00000-0 -29417-3 0  9992,2 52668  53.2175 297.1417 0001397 106.9360 253.1785 15.08823922 85170,6917.93,95.439,540.761,538.828,0.0
52668.0,STARLINK-4067,PAYLOAD,2023-11-27 03:59:58,15.08825825,0.0001644,53.2172,295.9524,93.4848,266.6332,-0.0002103,-3.632e-05,0.0,0 STARLINK-4067,1 52668U 22053N   23331.16665389 -.00003632  00000-0 -21030-3 0  9990,2 52668  53.2172 295.9524 0001644  93.4848 266.6332 15.08825825 85214,6917.924,95.438,540.926,538.651,0.0
52668.0,STARLINK-4067,PAYLOAD,2023-11-27 05:35:22,15.08826287,0.0001763,53.2178,295.6553,91.9991,268.1203,-0.00016527,-2.916e-05,0.0,0 STARLINK-4067,1 52668U 22053N   23331.23289471 -.00002916  00000-0 -16527-3 0  9991,2 52668  53.2178 295.6553 0001763  91.9991 268.1203 15.08826287 85221,6917.922,95.438,541.007,538.568,0.0
52668.0,STARLINK-4067,PAYLOAD,2023-11-28 02:15:22,15.08853694,0.0001443,53.2184,291.7876,90.4494,269.6663,0.00046501,7.123e-05,0.0,0 STARLINK-4067,1 52668U 22053N   23332.09400808  .00007123  00000-0  46501-3 0  9993,2 52668  53.2184 291.7876 0001443  90.4494 269.6663 15.08853694 85352,6917.839,95.437,540.702,538.705,0.0
52668.0,STARLINK-4067,PAYLOAD,2023-11-28 07:01:31,15.08860611,0.0001647,53.2177,290.8921,102.688,257.4297,0.00058956,9.113e-05,0.0,0 STARLINK-4067,1 52668U 22053N   23332.29272410  .00009113  00000-0  58956-3 0  9999,2 52668  53.2177 290.8921 0001647 102.6880 257.4297 15.08860611 85384,6917.817,95.436,540.822,538.543,0.0
52668.0,STARLINK-4067,PAYLOAD,2023-11-28 21:20:00,15.08838061,0.0001697,53.218,288.2175,112.7184,247.3988,0.00011402,1.527e-05,0.0,0 STARLINK-4067,1 52668U 22053N   23332.88889266  .00001527  00000-0  11402-3 0  9993,2 52668  53.2180 288.2175 0001697 112.7184 247.3988 15.08838061 85473,6917.886,95.438,540.925,538.577,0.0
52668.0,STARLINK-4067,PAYLOAD,2023-11-29 03:41:32,15.08851245,0.0001764,53.2171,287.0301,107.0874,253.0312,0.00036552,5.536e-05,0.0,0 STARLINK-4067,1 52668U 22053N   23333.15384954  .00005536  00000-0  36552-3 0  9995,2 52668  53.2171 287.0301 0001764 107.0874 253.0312 15.08851245 85518,6917.846,95.437,540.931,538.491,0.0
52668.0,STARLINK-4067,PAYLOAD,2023-11-30 03:32:20,15.08835382,0.000175,53.2167,282.5701,98.3007,261.8183,-0.00018507,-3.232e-05,0.0,0 STARLINK-4067,1 52668U 22053N   23334.14745617 -.00003232  00000-0 -18507-3 0  9995,2 52668  53.2167 282.5701 0001750  98.3007 261.8183 15.08835382 85665,6917.895,95.438,540.97,538.549,0.0
52668.0,STARLINK-4067,PAYLOAD,2023-12-01 03:23:07,15.08845677,0.0001684,53.2168,278.1088,103.3664,256.7516,0.00020926,3.044e-05,0.0,0 STARLINK-4067,1 52668U 22053N   23335.14105695  .00003044  00000-0  20926-3 0  9999,2 52668  53.2168 278.1088 0001684 103.3664 256.7516 15.08845677 85815,6917.863,95.437,540.893,538.563,0.0
52668.0,STARLINK-4067,PAYLOAD,2023-12-02 03:13:51,15.08871351,0.0001665,53.2179,273.6453,92.554,267.5643,0.00048238,7.404e-05,0.0,0 STARLINK-4067,1 52668U 22053N   23336.13462909  .00007404  00000-0  48238-3 0  9993,2 52668  53.2179 273.6453 0001665  92.5540 267.5643 15.08871351 85969,6917.785,95.436,540.801,538.498,0.0
52668.0,STARLINK-4067,PAYLOAD,2023-12-03 01:29:17,15.0884305,0.0001767,53.2169,269.489,116.1425,243.9749,-0.00013422,-2.424e-05,0.0,0 STARLINK-4067,1 52668U 22053N   23337.06200944 -.00002424  00000-0 -13422-3 0  9991,2 52668  53.2169 269.4890 0001767 116.1425 243.9749 15.08843050 86101,6917.871,95.437,540.958,538.514,0.0
52668.0,STARLINK-4067,PAYLOAD,2023-12-03 04:40:03,15.0884354,0.0001714,53.2169,268.8931,111.7851,248.3323,-0.00011174,-2.066e-05,0.0,0 STARLINK-4067,1 52668U 22053N   23337.19448929 -.00002066  00000-0 -11174-3 0  9996,2 52668  53.2169 268.8931 0001714 111.7851 248.3323 15.08843540 86129,6917.87,95.437,540.92,538.549,0.0
52668.0,STARLINK-4067,PAYLOAD,2023-12-04 02:55:28,15.08844861,0.0001822,53.2187,264.7285,80.6649,279.455,-0.00025856,-4.401e-05,0.0,0 STARLINK-4067,1 52668U 22053N   23338.12186103 -.00004401  00000-0 -25856-3 0  9990,2 52668  53.2187 264.7285 0001822  80.6649 279.4550 15.08844861 86264,6917.866,95.437,540.991,538.47,0.0
52668.0,STARLINK-4067,PAYLOAD,2023-12-04 04:30:51,15.08846945,0.000166,53.2178,264.4314,94.3691,265.7491,-0.00024565,-4.196e-05,0.0,0 STARLINK-4067,1 52668U 22053N   23338.18809801 -.00004196  00000-0 -24565-3 0  9990,2 52668  53.2178 264.4314 0001660  94.3691 265.7491 15.08846945 86271,6917.859,95.437,540.873,538.576,0.0
52668.0,STARLINK-4067,PAYLOAD,2023-12-05 02:46:15,15.08842993,0.000172,53.2179,260.2693,96.3133,263.8055,0.00022063,3.225e-05,0.0,0 STARLINK-4067,1 52668U 22053N   23339.11545370  .00003225  00000-0  22063-3 0  9993,2 52668  53.2179 260.2693 0001720  96.3133 263.8055 15.08842993 86416,6917.871,95.437,540.926,538.546,0.0
52668.0,STARLINK-4067,PAYLOAD,2023-12-05 04:21:38,15.08847878,0.0001715,53.2181,259.9699,104.9302,255.188,0.00023358,3.432e-05,0.0,0 STARLINK-4067,1 52668U 22053N   23339.18169064  .00003432  00000-0  23358-3 0  9990,2 52668  53.2181 259.9699 0001715 104.9302 255.1880 15.08847878 86426,6917.856,95.437,540.908,538.535,0.0
52668.0,STARLINK-4067,PAYLOAD,2023-12-06 04:12:25,15.08842097,0.0001638,53.2181,255.5057,94.7241,265.3938,0.00014692,2.051e-05,0.0,0 STARLINK-4067,1 52668U 22053N   23340.17529763  .00002051  00000-0  14692-3 0  9994,2 52668  53.2181 255.5057 0001638  94.7241 265.3938 15.08842097 86579,6917.874,95.437,540.872,538.606,0.0
52668.0,STARLINK-4067,PAYLOAD,2023-12-07 04:03:13,15.0883897,0.0001665,53.2189,251.0458,91.7016,268.4167,-6.2215e-05,-1.278e-05,0.0,0 STARLINK-4067,1 52668U 22053N   23341.16890491 -.00001278  00000-0 -62215-4 0  9990,2 52668  53.2189 251.0458 0001665  91.7016 268.4167 15.08838970 86720,6917.884,95.438,540.9,538.597,0.0
52668.0,STARLINK-4067,PAYLOAD,2023-12-09 18:03:15,15.08841803,0.0001451,53.2174,239.4514,106.8353,253.2798,5.1856e-05,5.37e-06,0.0,0 STARLINK-4067,1 52668U 22053N   23343.75226077  .00000537  00000-0  51856-4 0  9994,2 52668  53.2174 239.4514 0001451 106.8353 253.2798 15.08841803 87117,6917.875,95.437,540.744,538.736,0.0
52668.0,STARLINK-4067,PAYLOAD,2023-12-10 03:35:34,15.08834845,0.000157,53.2183,237.6663,98.597,261.52,-3.7062e-05,-8.78e-06,0.0,0 STARLINK-4067,1 52668U 22053N   23344.14970659 -.00000878  00000-0 -37062-4 0  9993,2 52668  53.2183 237.6663 0001570  98.5970 261.5200 15.08834845 87170,6917.896,95.438,540.847,538.675,0.0
52668.0,STARLINK-4067,PAYLOAD,2023-12-10 22:40:12,15.0883939,0.0001418,53.2175,234.1004,98.9832,261.132,2.1152e-05,4.9e-07,0.0,0 STARLINK-4067,1 52668U 22053N   23344.94458439  .00000049  00000-0  21152-4 0  9999,2 52668  53.2175 234.1004 0001418  98.9832 261.1320 15.08839390 87296,6917.882,95.438,540.728,538.766,0.0
52668.0,STARLINK-4067,PAYLOAD,2023-12-11 00:15:35,15.08836913,0.0001304,53.2174,233.8029,99.8819,260.2321,0.00010049,1.312e-05,0.0,0 STARLINK-4067,1 52668U 22053N   23345.01082452  .00001312  00000-0  10049-3 0  9992,2 52668  53.2174 233.8029 0001304  99.8819 260.2321 15.08836913 87308,6917.89,95.438,540.657,538.853,0.0
52668.0,STARLINK-4067,PAYLOAD,2023-12-11 22:30:59,15.08840803,0.0001346,53.2167,229.6405,97.708,262.4065,0.00010413,1.37e-05,0.0,0 STARLINK-4067,1 52668U 22053N   23345.93818363  .00001370  00000-0  10413-3 0  9990,2 52668  53.2167 229.6405 0001346  97.7080 262.4065 15.08840803 87441,6917.878,95.438,540.674,538.812,0.0
52668.0,STARLINK-4067,PAYLOAD,2023-12-12 00:06:22,15.08842238,0.0001373,53.2169,229.3434,97.0841,263.0308,0.00011377,1.523e-05,0.0,0 STARLINK-4067,1 52668U 22053N   23346.00442263  .00001523  00000-0  11377-3 0  9991,2 52668  53.2169 229.3434 0001373  97.0841 263.0308 15.08842238 87452,6917.874,95.437,540.688,538.789,0.0
52668.0,STARLINK-4067,PAYLOAD,2023-12-12 22:21:46,15.08845499,0.0001519,53.2168,225.1817,82.5767,277.5398,8.4233e-05,1.053e-05,0.0,0 STARLINK-4067,1 52668U 22053N   23346.93178258  .00001053  00000-0  84233-4 0  9993,2 52668  53.2168 225.1817 0001519  82.5767 277.5398 15.08845499 87594,6917.864,95.437,540.779,538.678,0.0
